[{"OBJECT_NAME":"OPTUS D1","OBJECT_ID":"2006-043B","EPOCH":"2026-03-09T21:24:31.288320","MEAN_MOTION":1.00271961,"ECCENTRICITY":0.00039055,"INCLINATION":2.7782,"RA_OF_ASC_NODE":80.8942,"ARG_OF_PERICENTER":275.2294,"MEAN_ANOMALY":284.5499,"EPHEMERIS_TYPE":0,"CLASSIFICATION_TYPE":"U","NORAD_CAT_ID":29495,"ELEMENT_SET_NO":999,"REV_AT_EPOCH":7112,"BSTAR":0,"MEAN_MOTION_DOT":-1.82e-6,"MEAN_MOTION_DDOT":0},{"OBJECT_NAME":"UFO 8 (USA 138)","OBJECT_ID":"1998-016A","EPOCH":"2026-03-09T16:28:38.583552","MEAN_MOTION":1.00286541,"ECCENTRICITY":0.00076872,"INCLINATION":11.0104,"RA_OF_ASC_NODE":23.3564,"ARG_OF_PERICENTER":273.049,"MEAN_ANOMALY":269.5235,"EPHEMERIS_TYPE":0,"CLASSIFICATION_TYPE":"U","NORAD_CAT_ID":25258,"ELEMENT_SET_NO":999,"REV_AT_EPOCH":10286,"BSTAR":0,"MEAN_MOTION_DOT":-1.98e-6,"MEAN_MOTION_DDOT":0}]
